0 DELTA 1 DEB
1 21567U 75052HM  13282.46363962  .00000439  00000-0  55066-3 0   649
2 21567 099.4310 098.4750 0255922 066.5751 348.3693 13.56523739106981
0 DELTA 1 DEB
1 21567U 75052HM  13287.48068274  .00000462  00000-0  57658-3 0   661
2 21567 099.4305 103.2848 0255868 053.8457 009.0720 13.56528615107665
0 DELTA 1 DEB
1 21567U 75052HM  13290.72523704  .00000515  00000-0  63744-3 0   679
2 21567 099.4308 106.3952 0255846 045.6118 013.8946 13.56533169108100
0 DELTA 1 DEB
1 21567U 75052HM  13292.95682178  .00000542  00000-0  66930-3 0   688
2 21567 099.4309 108.5347 0255838 039.9503 111.8951 13.56535552108404
0 DELTA 1 DEB
1 21567U 75052HM  13295.98082185  .00000592  00000-0  72713-3 0   698
2 21567 099.4306 111.4339 0255835 032.2790 119.7084 13.56539531108816
